{
    "links": {
        "self": "http://www.neowsapp.com/rest/v1/neo/3693549?api_key=iIulBulltgU6a56xZRHN4H3l9WmuAYTsLGpBGhQ2"
    },
    "id": "3693549",
    "neo_reference_id": "3693549",
    "name": "(2014 UT)",
    "designation": "2014 UT",
    "nasa_jpl_url": "http://ssd.jpl.nasa.gov/sbdb.cgi?sstr=3693549",
    "absolute_magnitude_h": 23.3,
    "estimated_diameter": {
        "kilometers": {
            "estimated_diameter_min": 0.058150704,
            "estimated_diameter_max": 0.130028927
        },
        "meters": {
            "estimated_diameter_min": 58.1507039646,
            "estimated_diameter_max": 130.0289270043
        },
        "miles": {
            "estimated_diameter_min": 0.0361331611,
            "estimated_diameter_max": 0.0807962044
        },
        "feet": {
            "estimated_diameter_min": 190.7831555951,
            "estimated_diameter_max": 426.6041048727
        }
    },
    "is_potentially_hazardous_asteroid": false,
    "close_approach_data": [
        {
            "close_approach_date": "2014-10-16",
            "close_approach_date_full": "2014-Oct-16 23:52",
            "epoch_date_close_approach": 1413503520000,
            "relative_velocity": {
                "kilometers_per_second": "11.6914113798",
                "kilometers_per_hour": "42089.0809673704",
                "miles_per_hour": "26152.5181155308"
            },
            "miss_distance": {
                "astronomical": "0.0723773457",
                "lunar": "28.1547874773",
                "kilometers": "10827496.752973659",
                "miles": "6727894.5056841342"
            },
            "orbiting_body": "Earth"
        }
    ],
    "orbital_data": {
        "orbit_id": "8",
        "orbit_determination_date": "2017-04-06 08:38:06",
        "first_observation_date": "2014-10-17",
        "last_observation_date": "2014-11-14",
        "data_arc_in_days": 28,
        "observations_used": 44,
        "orbit_uncertainty": "7",
        "minimum_orbit_intersection": ".0425779",
        "jupiter_tisserand_invariant": "3.192",
        "epoch_osculation": "2459000.5",
        "eccentricity": ".5770617504200842",
        "semi_major_axis": "2.458207347130987",
        "inclination": "16.70389028766553",
        "ascending_node_longitude": "198.4695757577283",
        "orbital_period": "1407.752137438636",
        "perihelion_distance": "1.039669912500068",
        "perihelion_argument": "182.6029714050104",
        "aphelion_distance": "3.876744781761907",
        "perihelion_time": "2458361.416066547971",
        "mean_anomaly": "163.4309122494649",
        "mean_motion": ".2557268360146193",
        "equinox": "J2000",
        "orbit_class": {
            "orbit_class_type": "AMO",
            "orbit_class_description": "Near-Earth asteroid orbits similar to that of 1221 Amor",
            "orbit_class_range": "1.017 AU < q (perihelion) < 1.3 AU"
        }
    },
    "is_sentry_object": false
}